LYNK TOWER 6            
1 59123U 24043AB  26068.89488777  .00011440  00000+0  40142-3 0  9996
2 59123  97.5426 204.1954 0009749 232.0253 128.0107 15.29548678111845
STARLINK-35849          
1 66348U 25254A   26068.76660013  .00018238  00000+0  62631-3 0  9998
2 66348  53.1596 232.3706 0001100  63.6023 296.5091 15.30203288 20144
