[{"OBJECT_NAME":"LYNK TOWER 6","OBJECT_ID":"2024-043AB","EPOCH":"2026-03-09T21:28:38.303328","MEAN_MOTION":15.29548678,"ECCENTRICITY":0.00097492,"INCLINATION":97.5426,"RA_OF_ASC_NODE":204.1954,"ARG_OF_PERICENTER":232.0253,"MEAN_ANOMALY":128.0107,"EPHEMERIS_TYPE":0,"CLASSIFICATION_TYPE":"U","NORAD_CAT_ID":59123,"ELEMENT_SET_NO":999,"REV_AT_EPOCH":11184,"BSTAR":0.00040142146,"MEAN_MOTION_DOT":0.0001144,"MEAN_MOTION_DDOT":0},{"OBJECT_NAME":"STARLINK-35849","OBJECT_ID":"2025-254A","EPOCH":"2026-03-09T18:23:54.251232","MEAN_MOTION":15.30203288,"ECCENTRICITY":0.00011,"INCLINATION":53.1596,"RA_OF_ASC_NODE":232.3706,"ARG_OF_PERICENTER":63.6023,"MEAN_ANOMALY":296.5091,"EPHEMERIS_TYPE":0,"CLASSIFICATION_TYPE":"U","NORAD_CAT_ID":66348,"ELEMENT_SET_NO":999,"REV_AT_EPOCH":2014,"BSTAR":0.0006263072,"MEAN_MOTION_DOT":0.00018238,"MEAN_MOTION_DDOT":0}]
